0 EKRAN 2 DEB
1 11581U 77092H   13279.74541366  .00000104  00000-0  10000-3 0  4689
2 11581 013.3460 331.6421 0017084 146.3767 213.7339 01.00182715 57879
0 EKRAN 2 DEB
1 11581U 77092H   13282.73977562  .00000101  00000-0  10000-3 0  4691
2 11581 013.3435 331.6104 0017069 146.8192 213.2799 01.00183972 57904
0 EKRAN 2 DEB
1 11581U 77092H   13283.73789536  .00000100  00000-0  10000-3 0  4705
2 11581 013.3426 331.5999 0016837 147.2665 212.8270 01.00184378 57918
0 EKRAN 2 DEB
1 11581U 77092H   13283.73790882  .00000000  00000-0  10000-3 0  4711
2 11581 013.3430 331.6029 0014769 153.3452 206.7254 01.00180320 57919
0 EKRAN 2 DEB
1 11581U 77092H   13292.72072828  .00000103  00000-0  10000-3 0  4717
2 11581 013.3350 331.5085 0016400 149.4837 210.5762 01.00188332 58007
